[{"OBJECT_NAME":"STARLINK-3834","OBJECT_ID":"2022-045AP","EPOCH":"2026-03-09T15:08:35.750112","MEAN_MOTION":15.08834149,"ECCENTRICITY":0.0001261,"INCLINATION":53.2171,"RA_OF_ASC_NODE":189.3854,"ARG_OF_PERICENTER":92.2551,"MEAN_ANOMALY":267.8585,"EPHEMERIS_TYPE":0,"CLASSIFICATION_TYPE":"U","NORAD_CAT_ID":52368,"ELEMENT_SET_NO":999,"REV_AT_EPOCH":21590,"BSTAR":2.312e-5,"MEAN_MOTION_DOT":8.0e-7,"MEAN_MOTION_DDOT":0},{"OBJECT_NAME":"OBJECT K","OBJECT_ID":"2017-042K","EPOCH":"2026-03-09T21:28:20.621568","MEAN_MOTION":15.07994228,"ECCENTRICITY":0.00097557,"INCLINATION":97.4104,"RA_OF_ASC_NODE":233.8721,"ARG_OF_PERICENTER":49.2775,"MEAN_ANOMALY":310.9299,"EPHEMERIS_TYPE":0,"CLASSIFICATION_TYPE":"U","NORAD_CAT_ID":42834,"ELEMENT_SET_NO":999,"REV_AT_EPOCH":47201,"BSTAR":0.00042776846,"MEAN_MOTION_DOT":6.528e-5,"MEAN_MOTION_DDOT":0}]
